      2.10          N: GNSS NAV DATA                        RINEX VERSION / TYPE
fic2rin                                 01/21/2023 00:17:42 PGM / RUN BY / DATE
                                                            END OF HEADER
26 23  1 20 23 59 44.0  .240592285991D-03  .568434188608D-12  .000000000000D+00
     .100000000000D+01 -.762500000000D+01  .515342894672D-08 -.172520140378D+01
    -.616535544395D-06  .779961969238D-02  .962428748608D-05  .515362231827D+04
     .518384000000D+06  .372529029846D-08  .247108422905D+01 -.124797224998D-06
     .934972557611D+00  .177468750000D+03  .434937555524D+00 -.809105131048D-08
    -.633954978198D-09  .100000000000D+01  .224500000000D+04  .000000000000D+00
     .240000000000D+01  .000000000000D+00  .698491930962D-08  .100000000000D+01
     .514740000000D+06  .400000000000D+01
4  23  1 21  1 29 36.0 -.445484183729D-04  .773070496507D-11  .000000000000D+00
     .178000000000D+03 -.320625000000D+02  .422053294500D-08 -.313379128305D+01
    -.163726508617D-05  .228855281603D-02  .112634152174D-04  .515372357750D+04
     .523776000000D+06  .000000000000D+00  .474455563481D+00 -.633299350739D-07
     .962574486314D+00  .164062500000D+03 -.307125918038D+01 -.764781856234D-08
     .679671168175D-09  .100000000000D+01  .224500000000D+04  .000000000000D+00
     .240000000000D+01  .000000000000D+00 -.465661287308D-08  .178000000000D+03
     .516600000000D+06  .400000000000D+01
